0 COSMOS 2251 DEB
1 34589U 93036WB  13282.72827828  .00000167  00000-0  13910-3 0  9384
2 34589 073.9294 029.2469 0261243 125.1090 000.4231 13.80381457233528
0 COSMOS 2251 DEB
1 34589U 93036WB  13285.70435429  .00000217  00000-0  17655-3 0  9406
2 34589 073.9296 024.2250 0261056 119.4888 029.6795 13.80383818233932
0 COSMOS 2251 DEB
1 34589U 93036WB  13286.71965590  .00000288  00000-0  22890-3 0  9411
2 34589 073.9296 022.5117 0260984 117.5698 035.1087 13.80384365234072
0 COSMOS 2251 DEB
1 34589U 93036WB  13288.36975826  .00000421  00000-0  32784-3 0  9420
2 34589 073.9295 019.7275 0260878 114.4481 315.1166 13.80386860234309
0 COSMOS 2251 DEB
1 34589U 93036WB  13289.68453260  .00000353  00000-0  27733-3 0  9432
2 34589 073.9293 017.5091 0260797 111.9657 008.7537 13.80387967234481
0 COSMOS 2251 DEB
1 34589U 93036WB  13291.26774419  .00000332  00000-0  26164-3 0  9446
2 34589 073.9290 014.8374 0260696 108.9629 316.3825 13.80389785234708
0 COSMOS 2251 DEB
1 34589U 93036WB  13292.28094385  .00000345  00000-0  27146-3 0  9452
2 34589 073.9289 013.1277 0260643 107.0425 311.3924 13.80390526234841
0 COSMOS 2251 DEB
1 34589U 93036WB  13293.29574725  .00000373  00000-0  29223-3 0  9465
2 34589 073.9289 011.4155 0260629 105.1188 314.3765 13.80391685234984
0 COSMOS 2251 DEB
1 34589U 93036WB  13294.69215771  .00000414  00000-0  32276-3 0  9472
2 34589 073.9288 009.0588 0260599 102.4722 053.7316 13.80393337235170
0 COSMOS 2251 DEB
1 34589U 93036WB  13296.18918565  .00000420  00000-0  32682-3 0  9488
2 34589 073.9289 006.5327 0260563 099.6341 293.1082 13.80395471235383
